{
  "norad_id": 58366,
  "name": "STARLINK-30892",
  "history": [
    {
      "epoch": "2026-03-28T19:34:10.836480Z",
      "apogee_km": 487.0351494017914,
      "perigee_km": 484.07072171862274,
      "latitude_deg": 3.947306154712497e-05,
      "longitude_deg": 122.71105612724021,
      "height_km": 485.4932641684463,
      "semi_major_axis_km": 6863.689935560206,
      "eccentricity": 0.00021595,
      "inclination_deg": 43.005,
      "raan_deg": 242.4866,
      "arg_perigee_deg": 263.7084,
      "mean_anomaly_deg": 96.3522,
      "mean_motion_rev_day": 15.26744196
    }
  ]
}